{"type": "FeatureCollection", "features": [ {"type": "Feature", "properties": {"norad_id": 66373, "name": "STARLINK-35809", "group": "last-30-days", "lat": 6.782742375837518, "lon": -28.050255279000126, "alt_km": 345.64279005350727, "timestamp": "2025-12-02T06:27:51.800135+00:00", "meta": {"OBJECT_NAME": "STARLINK-35809", "OBJECT_ID": "2025-254AB", "EPOCH": "2025-12-01T13:40:15.462624", "MEAN_MOTION": 15.74308525, "ECCENTRICITY": 0.00014362, "INCLINATION": 53.1571, "RA_OF_ASC_NODE": 330.3085, "ARG_OF_PERICENTER": 103.7531, "MEAN_ANOMALY": 256.3648, "EPHEMERIS_TYPE": 0, "CLASSIFICATION_TYPE": "U", "NORAD_CAT_ID": 66373, "ELEMENT_SET_NO": 999, "REV_AT_EPOCH": 392, "BSTAR": 0.0018224053, "MEAN_MOTION_DOT": 0.0027664, "MEAN_MOTION_DDOT": 0}, "tle": {"line1": "1 66373U 25254AB  25335.56962341  .00276640  00000+0  18224-2 0  9990", "line2": "2 66373  53.1571 330.3085 0001436 103.7531 256.3648 15.74308525  3923"}}, "geometry": {"type": "Point", "coordinates": [-28.050255279000126, 6.782742375837518]}}, {"type": "Feature", "properties": {"norad_id": 66374, "name": "STARLINK-35831", "group": "last-30-days", "lat": 7.863795224834408, "lon": -27.225417765662456, "alt_km": 345.770088967789, "timestamp": "2025-12-02T06:27:51.800147+00:00", "meta": {"OBJECT_NAME": "STARLINK-35831", "OBJECT_ID": "2025-254AC", "EPOCH": "2025-12-01T16:42:37.535328", "MEAN_MOTION": 15.74228022, "ECCENTRICITY": 0.000169, "INCLINATION": 53.157, "RA_OF_ASC_NODE": 329.6757, "ARG_OF_PERICENTER": 76.9524, "MEAN_ANOMALY": 283.1685, "EPHEMERIS_TYPE": 0, "CLASSIFICATION_TYPE": "U", "NORAD_CAT_ID": 66374, "ELEMENT_SET_NO": 999, "REV_AT_EPOCH": 394, "BSTAR": 0.00099838, "MEAN_MOTION_DOT": 0.00148441, "MEAN_MOTION_DDOT": 0}, "tle": {"line1": "1 66374U 25254AC  25335.69626777  .00148441  00000+0  99838-3 0  9993", "line2": "2 66374  53.1570 329.6757 0001690  76.9524 283.1685 15.74228022  3949"}}, "geometry": {"type": "Point", "coordinates": [-27.225417765662456, 7.863795224834408]}}, {"type": "Feature", "properties": {"norad_id": 66375, "name": "STARLINK-35826", "group": "last-30-days", "lat": 9.557305872841713, "lon": -25.920833002124482, "alt_km": 344.9761733344785, "timestamp": "2025-12-02T06:27:51.800157+00:00", "meta": {"OBJECT_NAME": "STARLINK-35826", "OBJECT_ID": "2025-254AD", "EPOCH": "2025-12-01T16:42:08.942112", "MEAN_MOTION": 15.7426627, "ECCENTRICITY": 0.0003156, "INCLINATION": 53.1569, "RA_OF_ASC_NODE": 329.674, "ARG_OF_PERICENTER": 90.1085, "MEAN_ANOMALY": 270.0297, "EPHEMERIS_TYPE": 0, "CLASSIFICATION_TYPE": "U", "NORAD_CAT_ID": 66375, "ELEMENT_SET_NO": 999, "REV_AT_EPOCH": 394, "BSTAR": 0.0019874, "MEAN_MOTION_DOT": 0.00302136, "MEAN_MOTION_DDOT": 0}, "tle": {"line1": "1 66375U 25254AD  25335.69593683  .00302136  00000+0  19874-2 0  9997", "line2": "2 66375  53.1569 329.6740 0003156  90.1085 270.0297 15.74266270  3940"}}, "geometry": {"type": "Point", "coordinates": [-25.920833002124482, 9.557305872841713]}}, {"type": "Feature", "properties": {"norad_id": 66376, "name": "SHIYAN-32 01", "group": "last-30-days", "lat": 48.03691620606199, "lon": -75.16104316859945, "alt_km": 428.40100192960017, "timestamp": "2025-12-02T06:27:51.800168+00:00", "meta": {"OBJECT_NAME": "SHIYAN-32 01", "OBJECT_ID": "2025-255A", "EPOCH": "2025-12-01T19:16:53.554368", "MEAN_MOTION": 15.42196322, "ECCENTRICITY": 0.0013339, "INCLINATION": 52.9964, "RA_OF_ASC_NODE": 230.0494, "ARG_OF_PERICENTER": 8.3763, "MEAN_ANOMALY": 351.7461, "EPHEMERIS_TYPE": 0, "CLASSIFICATION_TYPE": "U", "NORAD_CAT_ID": 66376, "ELEMENT_SET_NO": 999, "REV_AT_EPOCH": 366, "BSTAR": 0.00047189, "MEAN_MOTION_DOT": 0.0002026, "MEAN_MOTION_DDOT": 0}, "tle": {"line1": "1 66376U 25255A   25335.80339762  .00020260  00000+0  47189-3 0  9994", "line2": "2 66376  52.9964 230.0494 0013339   8.3763 351.7461 15.42196322  3660"}}, "geometry": {"type": "Point", "coordinates": [-75.16104316859945, 48.03691620606199]}}, {"type": "Feature", "properties": {"norad_id": 66377, "name": "CZ-11 DEB", "group": "last-30-days", "lat": 37.89044915936762, "lon": 11.776098227436938, "alt_km": 436.1576695985159, "timestamp": "2025-12-02T06:27:51.800181+00:00", "meta": {"OBJECT_NAME": "CZ-11 DEB", "OBJECT_ID": "2025-255B", "EPOCH": "2025-12-01T19:01:37.011936", "MEAN_MOTION": 15.43379892, "ECCENTRICITY": 0.0013895, "INCLINATION": 52.9964, "RA_OF_ASC_NODE": 229.9824, "ARG_OF_PERICENTER": 5.8586, "MEAN_ANOMALY": 354.2578, "EPHEMERIS_TYPE": 0, "CLASSIFICATION_TYPE": "U", "NORAD_CAT_ID": 66377, "ELEMENT_SET_NO": 999, "REV_AT_EPOCH": 352, "BSTAR": 0.00085435, "MEAN_MOTION_DOT": 0.0003864, "MEAN_MOTION_DDOT": 0}, "tle": {"line1": "1 66377U 25255B   25335.79278949  .00038640  00000+0  85435-3 0  9999", "line2": "2 66377  52.9964 229.9824 0013895   5.8586 354.2578 15.43379892  3525"}}, "geometry": {"type": "Point", "coordinates": [11.776098227436938, 37.89044915936762]}}, {"type": "Feature", "properties": {"norad_id": 66378, "name": "SHIYAN-32 02", "group": "last-30-days", "lat": 19.08127466623307, "lon": 32.54354553923247, "alt_km": 439.8635410671759, "timestamp": "2025-12-02T06:27:51.800192+00:00", "meta": {"OBJECT_NAME": "SHIYAN-32 02", "OBJECT_ID": "2025-255C", "EPOCH": "2025-12-01T18:55:04.196064", "MEAN_MOTION": 15.43870454, "ECCENTRICITY": 0.0012673, "INCLINATION": 52.9977, "RA_OF_ASC_NODE": 229.9564, "ARG_OF_PERICENTER": 7.3781, "MEAN_ANOMALY": 352.7408, "EPHEMERIS_TYPE": 0, "CLASSIFICATION_TYPE": "U", "NORAD_CAT_ID": 66378, "ELEMENT_SET_NO": 999, "REV_AT_EPOCH": 352, "BSTAR": 0.0011673, "MEAN_MOTION_DOT": 0.00053916, "MEAN_MOTION_DDOT": 0}, "tle": {"line1": "1 66378U 25255C   25335.78824301  .00053916  00000+0  11673-2 0  9993", "line2": "2 66378  52.9977 229.9564 0012673   7.3781 352.7408 15.43870454  3523"}}, "geometry": {"type": "Point", "coordinates": [32.54354553923247, 19.08127466623307]}}, {"type": "Feature", "properties": {"norad_id": 66379, "name": "SHIYAN-32 03", "group": "last-30-days", "lat": 52.077676054744444, "lon": -27.68757995967695, "alt_km": 431.13574762007556, "timestamp": "2025-12-02T06:27:51.800202+00:00", "meta": {"OBJECT_NAME": "SHIYAN-32 03", "OBJECT_ID": "2025-255D", "EPOCH": "2025-12-01T20:42:32.296320", "MEAN_MOTION": 15.42556992, "ECCENTRICITY": 0.0015352, "INCLINATION": 52.9971, "RA_OF_ASC_NODE": 229.7092, "ARG_OF_PERICENTER": 9.4603, "MEAN_ANOMALY": 350.6687, "EPHEMERIS_TYPE": 0, "CLASSIFICATION_TYPE": "U", "NORAD_CAT_ID": 66379, "ELEMENT_SET_NO": 999, "REV_AT_EPOCH": 355, "BSTAR": 0.00047274, "MEAN_MOTION_DOT": 0.00020569, "MEAN_MOTION_DDOT": 0}, "tle": {"line1": "1 66379U 25255D   25335.86287380  .00020569  00000+0  47274-3 0  9998", "line2": "2 66379  52.9971 229.7092 0015352   9.4603 350.6687 15.42556992  3551"}}, "geometry": {"type": "Point", "coordinates": [-27.68757995967695, 52.077676054744444]}}, {"type": "Feature", "properties": {"norad_id": 66380, "name": "STARLINK-35139", "group": "last-30-days", "lat": 41.27068853044819, "lon": -4.86538876416964, "alt_km": 441.0157698353778, "timestamp": "2025-12-02T06:27:51.800213+00:00", "meta": {"OBJECT_NAME": "STARLINK-35139", "OBJECT_ID": "2025-257A", "EPOCH": "2025-12-01T20:00:01.999008", "MEAN_MOTION": 15.41806575, "ECCENTRICITY": 0.0001252, "INCLINATION": 53.1595, "RA_OF_ASC_NODE": 316.0475, "ARG_OF_PERICENTER": 110.3393, "MEAN_ANOMALY": 45.5396, "EPHEMERIS_TYPE": 0, "CLASSIFICATION_TYPE": "U", "NORAD_CAT_ID": 66380, "ELEMENT_SET_NO": 999, "REV_AT_EPOCH": 468, "BSTAR": -0.056799, "MEAN_MOTION_DOT": -0.021946, "MEAN_MOTION_DDOT": 0}, "tle": {"line1": "1 66380U 25257A   25335.83335647 -.02194600  00000+0 -56799-1 0  9991", "line2": "2 66380  53.1595 316.0475 0001252 110.3393  45.5396 15.41806575  4681"}}, "geometry": {"type": "Point", "coordinates": [-4.86538876416964, 41.27068853044819]}}, {"type": "Feature", "properties": {"norad_id": 66381, "name": "STARLINK-35158", "group": "last-30-days", "lat": 42.35786306325212, "lon": -2.889471036707131, "alt_km": 440.7799101208766, "timestamp": "2025-12-02T06:27:51.800225+00:00", "meta": {"OBJECT_NAME": "STARLINK-35158", "OBJECT_ID": "2025-257B", "EPOCH": "2025-12-01T20:00:01.999008", "MEAN_MOTION": 15.41788212, "ECCENTRICITY": 0.0001411, "INCLINATION": 53.1592, "RA_OF_ASC_NODE": 316.0438, "ARG_OF_PERICENTER": 109.6717, "MEAN_ANOMALY": 48.0597, "EPHEMERIS_TYPE": 0, "CLASSIFICATION_TYPE": "U", "NORAD_CAT_ID": 66381, "ELEMENT_SET_NO": 999, "REV_AT_EPOCH": 474, "BSTAR": -0.056567, "MEAN_MOTION_DOT": -0.02147155, "MEAN_MOTION_DDOT": 0}, "tle": {"line1": "1 66381U 25257B   25335.83335647 -.02147155  00000+0 -56567-1 0  9998", "line2": "2 66381  53.1592 316.0438 0001411 109.6717  48.0597 15.41788212  4741"}}, "geometry": {"type": "Point", "coordinates": [-2.889471036707131, 42.35786306325212]}}, {"type": "Feature", "properties": {"norad_id": 66382, "name": "STARLINK-35639", "group": "last-30-days", "lat": 51.44665500456832, "lon": 24.122915256939137, "alt_km": 430.58818205421994, "timestamp": "2025-12-02T06:27:51.800235+00:00", "meta": {"OBJECT_NAME": "STARLINK-35639", "OBJECT_ID": "2025-257C", "EPOCH": "2025-12-01T20:00:01.999008", "MEAN_MOTION": 15.44563818, "ECCENTRICITY": 0.0001318, "INCLINATION": 53.1589, "RA_OF_ASC_NODE": 316.0102, "ARG_OF_PERICENTER": 85.2304, "MEAN_ANOMALY": 88.4329, "EPHEMERIS_TYPE": 0, "CLASSIFICATION_TYPE": "U", "NORAD_CAT_ID": 66382, "ELEMENT_SET_NO": 999, "REV_AT_EPOCH": 474, "BSTAR": -0.04819, "MEAN_MOTION_DOT": -0.0202542, "MEAN_MOTION_DDOT": 0}, "tle": {"line1": "1 66382U 25257C   25335.83335647 -.02025420  00000+0 -48190-1 0  9992", "line2": "2 66382  53.1589 316.0102 0001318  85.2304  88.4329 15.44563818  4740"}}, "geometry": {"type": "Point", "coordinates": [24.122915256939137, 51.44665500456832]}}]}